NUSAT-49 (KLARA DAN VO*)
1 60500U 24149AJ  26132.49255567  .00005754  00000+0  19929-3 0  9991
2 60500  97.3779 214.0223 0003982  74.0403 286.1276 15.30238366 96676
FLOCK 4BE-11            
1 60501U 24149AK  26132.49940301  .00011312  00000+0  26925-3 0  9990
2 60501  97.3699 216.2713 0004415  63.8203 296.3498 15.41776527 96859
YAM-7                   
1 60504U 24149AN  26132.18806410  .00004567  00000+0  15356-3 0  9991
2 60504  97.3785 212.5982 0004819  74.2260 285.9513 15.31310028 96549
FLOCK 4BE-24            
1 60505U 24149AP  26132.22656614  .00011246  00000+0  26820-3 0  9996
2 60505  97.3716 216.2433 0004583  72.4641 287.7107 15.41718786 96821
LUR-1                   
1 60506U 24149AQ  26132.46552708  .00004440  00000+0  15727-3 0  9994
2 60506  97.3742 211.5655 0005599  79.8310 280.3562 15.29625980 96516
TANAGER-1               
1 60507U 24149AR  26132.53215553  .00009998  00000+0  21701-3 0  9999
2 60507  97.3210 226.6615 0006077  75.1780 285.0142 15.44559756 97535
EAGLEEYE                
1 60508U 24149AS  26132.49015418  .00049786  00000+0  50441-3 0  9995
2 60508  97.3722 224.0307 0001905  53.3409 306.8026 15.65119008 97342
FLOCK 4BE-29            
1 60509U 24149AT  26132.19949982  .00010637  00000+0  24364-3 0  9993
2 60509  97.3808 217.5660 0003871  83.4699 276.6989 15.42953584 96864
TRANSPORTER-11 OBJECT AU
1 60510U 24149AU  26132.18303135  .00009133  00000+0  23701-3 0  9991
2 60510  97.3727 215.6460 0004779  72.3205 287.8562 15.39204809 96777
FLOCK 4BE-2             
1 60511U 24149AV  26132.50430410  .00030002  00000+0  55392-3 0  9995
2 60511  97.3822 218.8924 0003601  81.7806 278.3853 15.49043680 96977
FLOCK 4BE-13            
1 60512U 24149AW  26132.19040970  .00008575  00000+0  21061-3 0  9995
2 60512  97.3719 216.2567 0004768  55.7995 304.3703 15.40908690 96823
FLOCK 4BE-27            
1 60513U 24149AX  26132.45032132  .00005565  00000+0  17257-3 0  9994
2 60513  97.3826 214.3025 0005339  80.2914 279.8931 15.33814530 96662
FLOCK 4BE-9             
1 60514U 24149AY  26132.22770694  .00010143  00000+0  25872-3 0  9992
2 60514  97.3789 216.1827 0004013  84.9043 275.2661 15.39706480 96786
FLOCK 4BE-6             
1 60516U 24149BA  26132.48938863  .00008824  00000+0  23371-3 0  9991
2 60516  97.3788 215.8693 0004741  80.0861 280.0919 15.38587087 96786
FLOCK 4BE-14            
1 60517U 24149BB  26131.98437391  .00010353  00000+0  26255-3 0  9990
2 60517  97.3694 215.4692 0005623  78.5090 281.6787 15.39867629 96755
FLOCK 4BE-1             
1 60518U 24149BC  26132.49135908  .00010965  00000+0  26437-3 0  9998
2 60518  97.3779 217.1318 0005096  76.9350 283.2465 15.41392340 96879
FLOCK 4BE-28            
1 60519U 24149BD  26132.49345172  .00012274  00000+0  27427-3 0  9990
2 60519  97.3745 217.7496 0005169  71.6719 288.5090 15.43646990 96932
IPERDRONE.0             
1 60520U 24149BE  26132.22269580  .00042382  00000+0  48793-3 0  9993
2 60520  97.3773 223.8046 0001650  44.0716 316.0673 15.61876530 97295
TRANSPORTER-11 OBJECT BF
1 60521U 24149BF  26132.48384359  .00094409  00000+0  70386-3 0  9994
2 60521  97.3776 226.0450 0000563 335.6039  24.5198 15.72475671 97456
CONNECTA IOT-2          
1 60522U 24149BG  26132.58851740  .00002907  00000+0  12409-3 0  9993
2 60522  97.3843 211.2818 0008169  91.7827 268.4346 15.23662324 96475
PTD-R (TYVAK-0127)      
1 60523U 24149BH  26132.25914340  .00133701  00000+0  49621-3 0  9997
2 60523  97.3769 229.8219 0001236 214.6775 145.4416 15.87734058 97702
CONNECTA IOT-4          
1 60524U 24149BJ  26132.50317756  .00010944  00000+0  26890-3 0  9990
2 60524  97.3798 216.4898 0006236  69.1843 291.0071 15.40814258 96832
ORESAT0.5               
1 60525U 24149BK  26132.48158791  .00012001  00000+0  26740-3 0  9990
2 60525  97.3717 217.9751 0006195  59.6163 300.5696 15.43733249 96967
DEIMOS                  
1 60526U 24149BL  26132.49484394  .00011365  00000+0  26015-3 0  9990
2 60526  97.3778 218.1451 0006340  65.1124 295.0783 15.42941303 96940
CUAVA-2                 
1 60527U 24149BM  26132.50569238  .00007686  00000+0  22651-3 0  9997
2 60527  97.3727 213.9884 0007873  68.4188 291.7894 15.35282292 96691
ERNST                   
1 60528U 24149BN  26132.53226093  .00008774  00000+0  23482-3 0  9992
2 60528  97.3808 216.0124 0007248  72.0950 288.1084 15.38252650 96797
TORO                    
1 60530U 24149BQ  26132.26329430  .00000874  00000+0  82428-4 0  9993
2 60530  97.6789 207.6041 0001586  95.6873 264.4530 14.96286207 94585
HYPSO-2                 
1 60531U 24149BR  26132.21379607  .00001636  00000+0  14130-3 0  9991
2 60531  97.6817 209.0009 0002184 112.1927 247.9528 14.98606515 94660
LEMU NGE                
1 60532U 24149BS  26132.44087286  .00001222  00000+0  11748-3 0  9999
2 60532  97.6847 208.1254 0002545 113.1247 247.0242 14.94802264 94617
LEMUR-2-STELLA          
1 60533U 24149BT  26132.46278295  .00006403  00000+0  38717-3 0  9995
2 60533  97.6732 214.7862 0001910 123.3574 236.7839 15.11008099 95106
