OBJECT_NAME,OBJECT_ID,EPOCH,MEAN_MOTION,ECCENTRICITY,INCLINATION,RA_OF_ASC_NODE,ARG_OF_PERICENTER,MEAN_ANOMALY,EPHEMERIS_TYPE,CLASSIFICATION_TYPE,NORAD_CAT_ID,ELEMENT_SET_NO,REV_AT_EPOCH,BSTAR,MEAN_MOTION_DOT,MEAN_MOTION_DDOT
NUSAT-49 (KLARA DAN VON NEUMANN),2024-149AJ,2026-05-12T11:49:16.809888,15.30238366,.00039829,97.3779,214.0223,74.0403,286.1276,0,U,60500,999,9667,.1992905E-3,.5754E-4,0
FLOCK 4BE-11,2024-149AK,2026-05-12T11:59:08.420064,15.41776527,.0004415,97.3699,216.2713,63.8203,296.3498,0,U,60501,999,9685,.26925035E-3,.11312E-3,0
YAM-7,2024-149AN,2026-05-12T04:30:48.738240,15.31310028,.00048198,97.3785,212.5982,74.2260,285.9513,0,U,60504,999,9654,.15356145E-3,.4567E-4,0
FLOCK 4BE-24,2024-149AP,2026-05-12T05:26:15.314496,15.41718786,.00045835,97.3716,216.2433,72.4641,287.7107,0,U,60505,999,9682,.26820083E-3,.11246E-3,0
LUR-1,2024-149AQ,2026-05-12T11:10:21.539712,15.29625980,.00055994,97.3742,211.5655,79.8310,280.3562,0,U,60506,999,9651,.15726731E-3,.444E-4,0
TANAGER-1,2024-149AR,2026-05-12T12:46:18.237792,15.44559756,.00060771,97.3210,226.6615,75.1780,285.0142,0,U,60507,999,9753,.21700696E-3,.9998E-4,0
EAGLEEYE,2024-149AS,2026-05-12T11:45:49.321152,15.65119008,.00019057,97.3722,224.0307,53.3409,306.8026,0,U,60508,999,9734,.50440948E-3,.49786E-3,0
FLOCK 4BE-29,2024-149AT,2026-05-12T04:47:16.784448,15.42953584,.00038713,97.3808,217.5660,83.4699,276.6989,0,U,60509,999,9686,.24364208E-3,.10637E-3,0
TRANSPORTER-11 OBJECT AU,2024-149AU,2026-05-12T04:23:33.908640,15.39204809,.00047793,97.3727,215.6460,72.3205,287.8562,0,U,60510,999,9677,.23701439E-3,.9133E-4,0
FLOCK 4BE-2,2024-149AV,2026-05-12T12:06:11.874240,15.49043680,.00036012,97.3822,218.8924,81.7806,278.3853,0,U,60511,999,9697,.55391635E-3,.30002E-3,0
FLOCK 4BE-13,2024-149AW,2026-05-12T04:34:11.398080,15.40908690,.00047687,97.3719,216.2567,55.7995,304.3703,0,U,60512,999,9682,.21060513E-3,.8575E-4,0
FLOCK 4BE-27,2024-149AX,2026-05-12T10:48:27.762048,15.33814530,.00053394,97.3826,214.3025,80.2914,279.8931,0,U,60513,999,9666,.17256675E-3,.5565E-4,0
FLOCK 4BE-9,2024-149AY,2026-05-12T05:27:53.879616,15.39706480,.00040138,97.3789,216.1827,84.9043,275.2661,0,U,60514,999,9678,.25871954E-3,.10143E-3,0
FLOCK 4BE-6,2024-149BA,2026-05-12T11:44:43.177632,15.38587087,.00047416,97.3788,215.8693,80.0861,280.0919,0,U,60516,999,9678,.23370862E-3,.8824E-4,0
FLOCK 4BE-14,2024-149BB,2026-05-11T23:37:29.905824,15.39867629,.00056232,97.3694,215.4692,78.5090,281.6787,0,U,60517,999,9675,.26255077E-3,.10353E-3,0
FLOCK 4BE-1,2024-149BC,2026-05-12T11:47:33.424512,15.41392340,.00050965,97.3779,217.1318,76.9350,283.2465,0,U,60518,999,9687,.26437497E-3,.10965E-3,0
FLOCK 4BE-28,2024-149BD,2026-05-12T11:50:34.228608,15.43646990,.00051697,97.3745,217.7496,71.6719,288.5090,0,U,60519,999,9693,.27426919E-3,.12274E-3,0
IPERDRONE.0,2024-149BE,2026-05-12T05:20:40.917120,15.61876530,.00016503,97.3773,223.8046,44.0716,316.0673,0,U,60520,999,9729,.48793281E-3,.42382E-3,0
TRANSPORTER-11 OBJECT BF,2024-149BF,2026-05-12T11:36:44.086176,15.72475671,.00005634,97.3776,226.0450,335.6039,24.5198,0,U,60521,999,9745,.70385696E-3,.94409E-3,0
CONNECTA IOT-2,2024-149BG,2026-05-12T14:07:27.903360,15.23662324,.00081696,97.3843,211.2818,91.7827,268.4346,0,U,60522,999,9647,.12409215E-3,.2907E-4,0
PTD-R (TYVAK-0127),2024-149BH,2026-05-12T06:13:09.989760,15.87734058,.00012361,97.3769,229.8219,214.6775,145.4416,0,U,60523,999,9770,.49620718E-3,.133701E-2,0
CONNECTA IOT-4,2024-149BJ,2026-05-12T12:04:34.541184,15.40814258,.0006236,97.3798,216.4898,69.1843,291.0071,0,U,60524,999,9683,.26889963E-3,.10944E-3,0
ORESAT0.5,2024-149BK,2026-05-12T11:33:29.195424,15.43733249,.00061952,97.3717,217.9751,59.6163,300.5696,0,U,60525,999,9696,.26739978E-3,.12001E-3,0
DEIMOS,2024-149BL,2026-05-12T11:52:34.516416,15.42941303,.00063403,97.3778,218.1451,65.1124,295.0783,0,U,60526,999,9694,.26015464E-3,.11365E-3,0
CUAVA-2,2024-149BM,2026-05-12T12:08:11.821632,15.35282292,.00078737,97.3727,213.9884,68.4188,291.7894,0,U,60527,999,9669,.22650961E-3,.7686E-4,0
ERNST,2024-149BN,2026-05-12T12:46:27.344352,15.38252650,.00072484,97.3808,216.0124,72.0950,288.1084,0,U,60528,999,9679,.23481579E-3,.8774E-4,0
TORO,2024-149BQ,2026-05-12T06:19:08.627520,14.96286207,.0001586,97.6789,207.6041,95.6873,264.4530,0,U,60530,999,9458,.82427765E-4,.874E-5,0
HYPSO-2,2024-149BR,2026-05-12T05:07:51.980448,14.98606515,.00021847,97.6817,209.0009,112.1927,247.9528,0,U,60531,999,9466,.14130036E-3,.1636E-4,0
LEMU NGE,2024-149BS,2026-05-12T10:34:51.415104,14.94802264,.00025451,97.6847,208.1254,113.1247,247.0242,0,U,60532,999,9461,.11747527E-3,.1222E-4,0
LEMUR-2-STELLA,2024-149BT,2026-05-12T11:06:24.446880,15.11008099,.00019105,97.6732,214.7862,123.3574,236.7839,0,U,60533,999,9510,.38716658E-3,.6403E-4,0
